NAVSTAR 77 (USA 289)    
1 43873U 18109A   24066.32866691  .00000021  00000+0  00000+0 0  9994
2 43873  55.2550 125.0923 0029106 194.9617 128.7217  2.00574639 38360
